{
  "norad_id": 57743,
  "name": "STARLINK-30361",
  "history": [
    {
      "epoch": "2026-03-28T06:51:56.642400Z",
      "apogee_km": 486.12633754495255,
      "perigee_km": 484.9251965607182,
      "latitude_deg": 3.8141880047269893e-05,
      "longitude_deg": 138.46922930997835,
      "height_km": 485.5278454516609,
      "semi_major_axis_km": 6863.662767052835,
      "eccentricity": 8.75e-05,
      "inclination_deg": 43.0022,
      "raan_deg": 67.1639,
      "arg_perigee_deg": 247.9362,
      "mean_anomaly_deg": 112.1397,
      "mean_motion_rev_day": 15.26753261
    },
    {
      "epoch": "2026-03-29T04:50:50.671104Z",
      "apogee_km": 486.24894773093456,
      "perigee_km": 484.777381135681,
      "latitude_deg": -2.836555881478847e-06,
      "longitude_deg": 162.67491053705464,
      "height_km": 485.52615397758376,
      "semi_major_axis_km": 6863.6501644333075,
      "eccentricity": 0.0001072,
      "inclination_deg": 43.0025,
      "raan_deg": 61.9975,
      "arg_perigee_deg": 251.2681,
      "mean_anomaly_deg": 108.8054,
      "mean_motion_rev_day": 15.26757466
    },
    {
      "epoch": "2026-03-30T04:23:57.687648Z",
      "apogee_km": 486.3757853415809,
      "perigee_km": 484.67908749289927,
      "latitude_deg": 1.6393221304156648e-05,
      "longitude_deg": 162.89285188235854,
      "height_km": 485.5489247033329,
      "semi_major_axis_km": 6863.66443641724,
      "eccentricity": 0.0001236,
      "inclination_deg": 43.0028,
      "raan_deg": 56.4619,
      "arg_perigee_deg": 253.2415,
      "mean_anomaly_deg": 106.8301,
      "mean_motion_rev_day": 15.26752704
    },
    {
      "epoch": "2026-03-31T07:05:30.385248Z",
      "apogee_km": 486.38267479026854,
      "perigee_km": 484.7244071555697,
      "latitude_deg": -4.115715806309545e-05,
      "longitude_deg": 115.13963330147517,
      "height_km": 485.4584683927406,
      "semi_major_axis_km": 6863.690540972919,
      "eccentricity": 0.0001208,
      "inclination_deg": 43.0037,
      "raan_deg": 50.1912,
      "arg_perigee_deg": 261.125,
      "mean_anomaly_deg": 98.9464,
      "mean_motion_rev_day": 15.26743994
    },
    {
      "epoch": "2026-04-01T03:30:11.961792Z",
      "apogee_km": 486.4146833628083,
      "perigee_km": 484.6545634117074,
      "latitude_deg": -2.822433934874252e-05,
      "longitude_deg": 163.33194012797566,
      "height_km": 485.31591009506553,
      "semi_major_axis_km": 6863.671623387258,
      "eccentricity": 0.00012822,
      "inclination_deg": 43.0032,
      "raan_deg": 45.395,
      "arg_perigee_deg": 269.7238,
      "mean_anomaly_deg": 90.3466,
      "mean_motion_rev_day": 15.26750306
    },
    {
      "epoch": "2026-04-02T20:19:38.863776Z",
      "apogee_km": 486.6688716093431,
      "perigee_km": 484.5246411838443,
      "latitude_deg": -2.8919012808469314e-05,
      "longitude_deg": -100.30143839871933,
      "height_km": 485.62605312236343,
      "semi_major_axis_km": 6863.733756396594,
      "eccentricity": 0.0001562,
      "inclination_deg": 43.0046,
      "raan_deg": 35.8003,
      "arg_perigee_deg": 256.4091,
      "mean_anomaly_deg": 103.6586,
      "mean_motion_rev_day": 15.26729575
    },
    {
      "epoch": "2026-04-02T20:19:38.864640Z",
      "apogee_km": 486.6690088840187,
      "perigee_km": 484.52450390916965,
      "latitude_deg": -2.7391018276678618e-05,
      "longitude_deg": -100.30144037931484,
      "height_km": 485.62608537572396,
      "semi_major_axis_km": 6863.733756396594,
      "eccentricity": 0.00015622,
      "inclination_deg": 43.0046,
      "raan_deg": 35.8003,
      "arg_perigee_deg": 256.4091,
      "mean_anomaly_deg": 103.6586,
      "mean_motion_rev_day": 15.26729575
    },
    {
      "epoch": "2026-04-03T05:44:49.833888Z",
      "apogee_km": 486.3898397786952,
      "perigee_km": 484.5888242291776,
      "latitude_deg": -4.776229811481471e-05,
      "longitude_deg": 115.80117889145355,
      "height_km": 485.5496974790719,
      "semi_major_axis_km": 6863.626332003936,
      "eccentricity": 0.0001312,
      "inclination_deg": 43.0034,
      "raan_deg": 33.5855,
      "arg_perigee_deg": 251.6587,
      "mean_anomaly_deg": 108.4121,
      "mean_motion_rev_day": 15.26765418
    },
    {
      "epoch": "2026-04-04T19:25:52.189248Z",
      "apogee_km": 485.86087259048236,
      "perigee_km": 485.206078427118,
      "latitude_deg": 2.035012219205493e-05,
      "longitude_deg": -99.8613896831596,
      "height_km": 485.4895859173214,
      "semi_major_axis_km": 6863.670475508799,
      "eccentricity": 4.77e-05,
      "inclination_deg": 43.0024,
      "raan_deg": 24.7303,
      "arg_perigee_deg": 236.6504,
      "mean_anomaly_deg": 123.4302,
      "mean_motion_rev_day": 15.26750689
    },
    {
      "epoch": "2026-04-05T04:51:05.754816Z",
      "apogee_km": 486.6368571951243,
      "perigee_km": 484.31832818571274,
      "latitude_deg": 2.9419595755141153e-05,
      "longitude_deg": 116.23311272948045,
      "height_km": 485.0983166228884,
      "semi_major_axis_km": 6863.614592690418,
      "eccentricity": 0.0001689,
      "inclination_deg": 43.0046,
      "raan_deg": 22.5182,
      "arg_perigee_deg": 277.7741,
      "mean_anomaly_deg": 82.2919,
      "mean_motion_rev_day": 15.26769335
    },
    {
      "epoch": "2026-04-06T04:24:14.317920Z",
      "apogee_km": 486.53292111900737,
      "perigee_km": 484.5379260923619,
      "latitude_deg": 1.3189396976507567e-06,
      "longitude_deg": 116.44593946157114,
      "height_km": 485.11864368118444,
      "semi_major_axis_km": 6863.672423605684,
      "eccentricity": 0.00014533,
      "inclination_deg": 43.0051,
      "raan_deg": 16.984,
      "arg_perigee_deg": 281.2253,
      "mean_anomaly_deg": 78.8435,
      "mean_motion_rev_day": 15.26750039
    },
    {
      "epoch": "2026-04-07T02:23:08.909088Z",
      "apogee_km": 486.4595374667342,
      "perigee_km": 484.6211701242937,
      "latitude_deg": 2.123098661871856e-05,
      "longitude_deg": 140.65073345948056,
      "height_km": 485.06658430301104,
      "semi_major_axis_km": 6863.677353795514,
      "eccentricity": 0.00013392,
      "inclination_deg": 43.005,
      "raan_deg": 11.819,
      "arg_perigee_deg": 285.8502,
      "mean_anomaly_deg": 74.2202,
      "mean_motion_rev_day": 15.26748394
    },
    {
      "epoch": "2026-04-08T03:30:27.291744Z",
      "apogee_km": 486.6103703655308,
      "perigee_km": 484.4672562295864,
      "latitude_deg": -4.6153597369724525e-05,
      "longitude_deg": 116.88854956550573,
      "height_km": 485.26659166649335,
      "semi_major_axis_km": 6863.675813297558,
      "eccentricity": 0.00015612,
      "inclination_deg": 43.0064,
      "raan_deg": 5.9152,
      "arg_perigee_deg": 272.667,
      "mean_anomaly_deg": 87.4002,
      "mean_motion_rev_day": 15.26748908
    }
  ]
}